ONEWEB-0228             
1 48780U 21045P   24036.13034898 -.00000039  00000+0 -13888-3 0  9994
2 48780  87.8947  70.9704 0002028  95.1957 264.9405 13.15546932131988
